"spkid","full_name","pdes","name","pha","H","G","diameter","albedo","rot_per","epoch_mjd","e","a","q","i","om","w","ma","ad","moid","moid_jup","t_jup","class"
3869352,"       (2019 SE7)","2019 SE7",,N,23.90,,,,,58755,0.1942,1.195,0.963,32.39,192.50,76.03,75.13,1.43,0.0909,3.7,5.15,APO
3869354,"       (2019 SF7)","2019 SF7",,N,24.80,,,,,58759,0.4967,2.105,1.060,4.10,234.81,95.29,12.22,3.15,0.0879,2.26,3.57,AMO
3872621,"       (2019 SH7)","2019 SH7",,N,23.29,,,,,59800,0.3584,1.766,1.133,12.72,197.06,148.16,90.39,2.40,0.156,3.07,4.01,AMO
3872620,"       (2019 SJ7)","2019 SJ7",,N,22.50,,,,,59800,0.5358,2.595,1.204,7.97,207.30,154.16,250.08,3.99,0.212,1.52,3.19,AMO
3872623,"       (2019 SK7)","2019 SK7",,N,22.90,,,,,59800,0.2760,0.9654,0.699,17.81,196.38,332.46,218.95,1.23,0.15,3.74,6.18,ATE
3872622,"       (2019 SL7)","2019 SL7",,N,25.70,,,,,59800,0.6980,2.484,0.750,2.74,198.57,244.12,250.13,4.22,0.00215,1.08,3.08,APO
3872625,"       (2019 SM7)","2019 SM7",,N,21.30,,,,,59800,0.4345,1.196,0.676,12.17,34.96,200.14,161.91,1.72,0.192,3.29,5.2,APO
3872624,"       (2019 SN7)","2019 SN7",,N,25.40,,,,,58752,0.4709,1.83,0.968,0.64,149.47,166.79,16.88,2.69,0.00299,2.63,3.89,APO
3872626,"       (2019 SO7)","2019 SO7",,N,23.10,,,,,58755,0.6231,2.795,1.053,8.31,202.99,209.64,352.16,4.54,0.0828,0.903,3,AMO
3872628,"       (2019 SV7)","2019 SV7",,N,22.20,,,,,59800,0.6820,2.768,0.880,4.21,118.06,316.81,208.80,4.66,0.00152,0.691,2.94,APO
3872629,"       (2019 SW7)","2019 SW7",,N,22.10,,,,,58750,0.4933,2.414,1.223,6.12,119.33,201.37,9.67,3.61,0.214,1.74,3.33,AMO
3872631,"       (2019 SC8)","2019 SC8",,N,23.50,,,,,58754,0.5298,1.042,0.490,28.75,2.60,130.12,293.34,1.59,0.0807,3.55,5.66,APO
3872632,"       (2019 SD8)","2019 SD8",,N,27.40,,,,,59800,0.5025,1.761,0.876,3.72,5.24,54.49,63.47,2.65,0.00374,2.73,3.96,APO
3872630,"       (2019 SE8)","2019 SE8",,N,26.90,,,,,59800,0.7480,2.039,0.514,2.53,193.58,272.45,337.46,3.56,0.00416,1.63,3.38,APO
3872633,"       (2019 SF8)","2019 SF8",,N,23.30,,,,,59800,0.4832,1.901,0.982,3.86,208.96,115.68,45.54,2.82,0.0433,2.55,3.79,APO
3872634,"       (2019 SH8)","2019 SH8",,N,23.50,,,,,59800,0.5704,2.474,1.063,1.83,246.33,152.64,256.86,3.89,0.0727,1.56,3.23,AMO
3872635,"       (2019 SJ8)","2019 SJ8",,N,24.50,,,,,59800,0.3698,1.562,0.985,8.25,199.10,216.34,144.02,2.14,0.0302,3.25,4.34,APO
3872638,"       (2019 SK8)","2019 SK8",,N,26.10,,,,,59800,0.3314,1.356,0.907,8.96,10.63,61.74,256.04,1.81,0.0245,3.51,4.79,APO
3872637,"       (2019 SL8)","2019 SL8",,N,25.90,,,,,58756,0.3626,1.215,0.774,16.29,6.96,86.22,313.57,1.66,0.0186,3.61,5.15,APO
3872636,"       (2019 SM8)","2019 SM8",,N,29.20,,,,,59800,0.5184,1.533,0.738,4.64,188.50,256.09,155.46,2.33,0.000704,2.95,4.32,APO
3872642,"       (2019 SO8)","2019 SO8",,N,26.70,,,,,59800,0.3231,1.399,0.947,11.78,187.54,132.67,285.46,1.85,0.0191,3.51,4.68,APO
3872643,"       (2019 SP8)","2019 SP8",,N,25.40,,,,,58757,0.5255,2.203,1.045,4.99,199.06,145.72,5.97,3.36,0.0585,2.09,3.46,AMO
3872644,"       (2019 SQ8)","2019 SQ8",,N,23.26,,,,,59800,0.6700,2.313,0.763,2.91,39.98,235.94,311.97,3.86,0.00907,1.31,3.24,APO
3872645,"       (2019 SR8)","2019 SR8",,N,25.50,,,,,58754,0.5092,1.783,0.875,1.15,74.55,353.14,338.27,2.69,0.013,2.64,3.93,APO
3872646,"       (2019 SS8)","2019 SS8",,N,25.40,,,,,58754,0.3178,1.617,1.103,10.74,8.59,352.85,2.75,2.13,0.102,3.32,4.26,AMO
3873139,"       (2019 ST8)","2019 ST8",,N,25.40,,,,,58758,0.7059,2.756,0.811,1.87,183.74,121.01,9.22,4.70,0.000839,0.615,2.92,APO
3873142,"       (2019 SU8)","2019 SU8",,N,21.90,,,,,59800,0.6560,2.045,0.703,7.32,290.82,177.90,323.84,3.39,0.12,1.78,3.48,APO
3873140,"       (2019 SV8)","2019 SV8",,N,20.53,,,,,59800,0.6502,1.673,0.585,14.90,350.40,150.58,67.15,2.76,0.217,2.3,3.94,APO
3873141,"       (2019 SW8)","2019 SW8",,N,25.70,,,,,59800,0.3710,1.615,1.016,1.28,344.92,344.84,157.15,2.21,0.00755,3.15,4.26,APO
3873143,"       (2019 SX8)","2019 SX8",,N,28.90,,,,,59800,0.3827,1.53,0.944,4.88,186.12,140.87,200.95,2.12,0.0021,3.25,4.4,APO
3873144,"       (2019 SY8)","2019 SY8",,N,24.80,,,,,59800,0.2694,1.578,1.153,3.93,202.16,151.18,167.52,2.00,0.152,3.44,4.36,AMO
3873147,"       (2019 SZ8)","2019 SZ8",,N,26.20,,,,,58757,0.0755,1.041,0.962,12.39,191.07,45.69,123.64,1.12,0.0168,3.85,5.87,APO
3873145,"       (2019 SA9)","2019 SA9",,N,26.80,,,,,58756,0.6067,2.336,0.919,0.68,235.72,83.54,9.91,3.75,0.00797,1.6,3.29,APO
3873146,"       (2019 SB9)","2019 SB9",,N,28.10,,,,,59800,0.2641,1.139,0.838,12.07,5.38,280.17,178.39,1.44,0.00677,3.73,5.45,APO
3873148,"       (2019 SC9)","2019 SC9",,N,21.70,,,,,59800,0.6219,2.816,1.065,3.69,70.30,338.70,209.65,4.57,0.0794,0.845,3,AMO
3873149,"       (2019 SE9)","2019 SE9",,N,25.15,,,,,59800,0.1927,1.258,1.016,3.31,203.15,143.77,20.95,1.50,0.0284,3.85,5.1,APO
3873150,"       (2019 SF9)","2019 SF9",,N,24.40,,,,,59800,0.0953,1.056,0.956,27.25,4.90,65.63,173.45,1.16,0.00528,3.94,5.72,APO
3873151,"       (2019 SG9)","2019 SG9",,N,25.00,,,,,58757,0.7099,2.984,0.866,9.23,5.23,305.92,7.67,5.10,0.0156,0.629,2.8,APO
3873153,"       (2019 SH9)","2019 SH9",,N,27.80,,,,,58757,0.5952,1.89,0.765,6.16,188.50,250.42,342.11,3.01,0.00377,2.31,3.72,APO
3873152,"       (2019 SJ9)","2019 SJ9",,N,27.10,,,,,59800,0.3721,1.581,0.992,10.99,6.09,27.31,145.67,2.17,0.0193,3.3,4.3,APO
3873154,"       (2019 SK9)","2019 SK9",,N,27.10,,,,,58758,0.6924,2.532,0.779,3.31,4.10,295.39,11.43,4.29,0.00161,1,3.06,APO
3873155,"       (2019 ST9)","2019 ST9",,N,20.61,,,,,59800,0.6066,1.667,0.656,29.84,190.88,295.71,69.81,2.68,0.126,2.87,3.9,APO
3873160,"       (2019 SU9)","2019 SU9",,N,24.07,,,,,59800,0.2723,1.512,1.100,2.63,248.36,141.38,181.97,1.92,0.11,3.52,4.48,AMO
3873161,"       (2019 SV9)","2019 SV9",,N,25.40,,,,,58760,0.6290,2.218,0.823,2.51,218.70,215.27,346.10,3.61,0.0161,1.7,3.36,APO
3873162,"       (2019 SW9)","2019 SW9",,N,24.50,,,,,59800,0.1960,1.325,1.066,6.15,359.73,336.65,332.57,1.59,0.0664,3.74,4.91,AMO
3873163,"       (2019 SX9)","2019 SX9",,N,25.10,,,,,58757,0.0190,1.129,1.108,20.30,189.89,22.22,152.77,1.15,0.109,3.81,5.48,AMO
3873194,"       (2019 SZ9)","2019 SZ9",,N,24.40,,,,,58753,0.2568,1.426,1.060,36.97,6.43,50.48,328.73,1.79,0.138,3.77,4.46,AMO
3873195,"       (2019 SA10)","2019 SA10",,N,22.50,,,,,59800,0.4981,2.58,1.295,5.12,25.53,19.55,237.91,3.86,0.306,1.57,3.23,AMO
3873197,"       (2019 SB10)","2019 SB10",,N,22.80,,,,,59800,0.5447,2.723,1.240,3.44,320.87,72.99,221.90,4.21,0.254,1.3,3.12,AMO
3873199,"       (2019 SD10)","2019 SD10",,N,24.60,,,,,58758,0.4475,1.341,0.741,15.91,5.74,260.58,51.06,1.94,0.000203,3.27,4.75,APO
3873203,"       (2019 SK10)","2019 SK10",,N,20.30,,,,,59800,0.4608,1.255,0.677,46.09,198.70,11.40,160.59,1.83,0.318,3.13,4.75,APO
3873314,"       (2019 SM10)","2019 SM10",,N,25.10,,,,,58744,0.4744,2.12,1.115,4.95,190.73,143.56,6.25,3.13,0.117,2.29,3.57,AMO
3873310,"       (2019 SN10)","2019 SN10",,N,21.20,,,,,59800,0.5777,2.15,0.908,25.30,188.49,287.22,288.25,3.39,0.153,2.39,3.37,APO
3873311,"       (2019 SO10)","2019 SO10",,N,21.40,,,,,59800,0.5663,2.911,1.262,13.66,151.73,243.33,200.16,4.56,0.344,1.28,2.99,AMO
3873312,"       (2019 SP10)","2019 SP10",,N,22.50,,,,,59800,0.4158,2.161,1.262,7.91,46.88,347.61,313.10,3.06,0.271,2.38,3.57,AMO
3873313,"       (2019 SQ10)","2019 SQ10",,N,25.30,,,,,58758,0.3277,1.516,1.019,7.09,183.99,171.99,7.70,2.01,0.0181,3.43,4.45,AMO
3873315,"       (2019 SR10)","2019 SR10",,N,24.90,,,,,59800,0.5856,2.55,1.057,1.97,54.06,303.43,254.81,4.04,0.0606,1.41,3.17,AMO
3874051,"       (2019 SU10)","2019 SU10",,N,27.20,,,,,58752,0.6165,2.594,0.995,16.41,182.27,194.99,357.19,4.19,0.00479,1.29,3.07,APO
3873327,"       (2019 SV10)","2019 SV10",,N,23.80,,,,,58757,0.2168,1.37,1.073,21.48,185.95,219.75,337.17,1.67,0.112,3.81,4.73,AMO
3874054,"       (2019 SW10)","2019 SW10",,N,23.34,,,,,59800,0.5624,1.286,0.563,1.48,107.81,20.67,290.74,2.01,0.0216,3.06,4.87,APO
3878583,"       (2019 SB11)","2019 SB11",,N,20.30,,,,,58756,0.4597,2.336,1.262,5.57,312.13,331.42,40.92,3.41,0.25,1.79,3.41,AMO
3878560,"       (2019 SC11)","2019 SC11",,N,23.20,,,,,58757,0.7823,2.44,0.531,6.32,160.99,105.36,14.88,4.35,0.0222,0.908,2.98,APO
3878566,"       (2019 SD11)","2019 SD11",,N,23.50,,,,,59800,0.5253,1.981,0.941,6.24,42.83,38.76,346.59,3.02,0.0127,2.28,3.67,APO
3879108,"       (2019 SE11)","2019 SE11",,N,25.80,,,,,58748,0.5156,2.199,1.065,8.56,177.95,197.53,355.05,3.33,0.0716,2.13,3.47,AMO
3873156,"       (2019 TA)","2019 TA",,N,29.40,,,,,59800,0.2414,1.246,0.945,3.46,7.13,312.74,48.99,1.55,0.00236,3.73,5.13,APO
3873158,"       (2019 TB)","2019 TB",,N,27.30,,,,,59800,0.2124,1.195,0.941,0.48,316.63,354.95,103.71,1.45,0.00585,3.76,5.29,APO
3873157,"       (2019 TC)","2019 TC",,N,26.40,,,,,58761,0.6243,2.755,1.035,16.44,7.72,351.47,2.35,4.48,0.037,0.983,2.98,AMO
3873159,"       (2019 TD)","2019 TD",,N,29.20,,,,,59800,0.5014,1.88,0.937,3.24,186.60,143.61,49.99,2.82,0.000339,2.56,3.81,APO
3873164,"       (2019 TE)","2019 TE",,N,28.00,,,,,58758,0.6029,1.371,0.545,4.80,4.12,258.61,34.48,2.20,0.00141,2.91,4.61,APO
3873196,"       (2019 TF)","2019 TF",,N,27.60,,,,,58758,0.1736,1.266,1.046,18.43,6.95,352.30,6.18,1.49,0.046,3.91,5.03,AMO
3873198,"       (2019 TG)","2019 TG",,N,24.70,,,,,58757,0.2646,1.469,1.080,22.48,187.71,149.36,16.10,1.86,0.106,3.62,4.49,AMO
3873201,"       (2019 TH)","2019 TH",,N,25.70,,,,,58752,0.4626,1.695,0.911,12.78,5.40,56.52,337.79,2.48,0.0365,2.97,4.06,APO
3873202,"       (2019 TJ)","2019 TJ",,N,23.50,,,,,59800,0.4760,1.646,0.863,8.34,184.13,113.10,153.90,2.43,0.0257,2.85,4.14,APO
3873204,"       (2019 TK)","2019 TK",,N,28.10,,,,,59800,0.5648,1.958,0.852,11.63,189.75,234.41,0.59,3.06,0.00179,2.38,3.65,APO
3873205,"       (2019 TL)","2019 TL",,N,24.20,,,,,59800,0.4177,1.828,1.065,6.21,202.28,166.77,53.71,2.59,0.0685,2.88,3.92,AMO
3873207,"       (2019 TM)","2019 TM",,N,25.00,,,,,59800,0.5962,2.045,0.826,3.76,0.99,69.55,336.08,3.26,0.0133,2.09,3.55,APO
3873206,"       (2019 TN)","2019 TN",,N,22.00,,,,,59800,0.2451,1.238,0.935,16.88,192.87,43.79,129.47,1.54,0.00883,3.46,5.11,APO
